ONEWEB-0320             
1 49190U 21083E   24117.77380365  .00000055  00000+0  10651-3 0  9996
2 49190  87.9126 131.0189 0002010  92.6100 267.5262 13.18686600126998
ONEWEB-0321             
1 49191U 21083F   24118.14843142  .00000048  00000+0  86891-4 0  9998
2 49191  87.9194  69.8438 0001899  91.3307 268.8043 13.20772398135015
ONEWEB-0322             
1 49192U 21083G   24117.49647715 -.00000080  00000+0 -25352-3 0  9996
2 49192  87.8895 115.8483 0002056 101.9529 258.1831 13.13470208128303
ONEWEB-0324             
1 49193U 21083H   24118.06307764 -.00000018  00000+0 -79702-4 0  9998
2 49193  87.9127 130.9436 0002334  89.5108 270.6292 13.18679658128330
ONEWEB-0325             
1 49194U 21083J   24117.53670702  .00000024  00000+0  27751-4 0  9997
2 49194  87.9126 131.0616 0001979  93.5578 266.5781 13.18689736126997
ONEWEB-0326             
1 49195U 21083K   24117.77856185  .00000065  00000+0  13184-3 0  9994
2 49195  87.9124 131.0136 0002170  75.3573 284.7799 13.18684244127014
ONEWEB-0327             
1 49196U 21083L   24117.52483457  .00000043  00000+0  75861-4 0  9993
2 49196  87.9127 131.0761 0002009  78.9050 281.2308 13.18687638127009
ONEWEB-0328             
1 49197U 21083M   24117.94401832 -.00000259  00000+0 -74445-3 0  9994
2 49197  87.8884 115.7494 0002086  87.1871 272.9497 13.13469605128340
